[{"OBJECT_NAME":"STARLINK-2423","OBJECT_ID":"2021-018AY","EPOCH":"2026-03-09T17:15:42.967584","MEAN_MOTION":15.06383116,"ECCENTRICITY":0.00015138,"INCLINATION":53.0551,"RA_OF_ASC_NODE":251.4863,"ARG_OF_PERICENTER":85.9067,"MEAN_ANOMALY":274.2095,"EPHEMERIS_TYPE":0,"CLASSIFICATION_TYPE":"U","NORAD_CAT_ID":47833,"ELEMENT_SET_NO":999,"REV_AT_EPOCH":27665,"BSTAR":-0.0002990341,"MEAN_MOTION_DOT":-4.731e-5,"MEAN_MOTION_DDOT":0},{"OBJECT_NAME":"ATLAS 28E DEB","OBJECT_ID":"1990-031G","EPOCH":"2026-03-09T13:30:42.820704","MEAN_MOTION":15.01077751,"ECCENTRICITY":0.00267601,"INCLINATION":90.3468,"RA_OF_ASC_NODE":293.9289,"ARG_OF_PERICENTER":41.2715,"MEAN_ANOMALY":319.0536,"EPHEMERIS_TYPE":0,"CLASSIFICATION_TYPE":"U","NORAD_CAT_ID":20575,"ELEMENT_SET_NO":999,"REV_AT_EPOCH":38014,"BSTAR":0.00040945673,"MEAN_MOTION_DOT":5.29e-5,"MEAN_MOTION_DDOT":0}]
